STARLINK-31075          
1 58594U 23200F   26067.35981993  .00000279  00000+0  20095-4 0  9993
2 58594  43.0013 175.8265 0001718 190.3160 169.7657 15.26747945123417
STARLINK-36554          
1 67502U 26012K   26067.71268370  .00032833  00000+0  11969-2 0  9992
2 67502  42.9934 319.8184 0000695 339.2059  20.8765 15.27591469  7619
